OBJECT_NAME,OBJECT_ID,EPOCH,MEAN_MOTION,ECCENTRICITY,INCLINATION,RA_OF_ASC_NODE,ARG_OF_PERICENTER,MEAN_ANOMALY,EPHEMERIS_TYPE,CLASSIFICATION_TYPE,NORAD_CAT_ID,ELEMENT_SET_NO,REV_AT_EPOCH,BSTAR,MEAN_MOTION_DOT,MEAN_MOTION_DDOT
FENGYUN 3D,2017-072A,2026-06-19T21:30:03.667392,14.19739831,.00024772,99.0132,145.3674,59.0038,301.1381,0,U,43010,999,44537,-.2297642E-5,-.51E-6,0
NOAA 20 (JPSS-1),2017-073A,2026-06-19T21:23:26.198880,14.19512178,.00003673,98.7770,110.3299,115.6288,244.4926,0,U,43013,999,44485,.38386489E-4,.37E-6,0
GOES 17,2018-022A,2026-06-19T21:00:23.774688,1.00269498,.00005569,0.9450,85.6629,26.8399,21.1589,0,U,43226,999,3045,0,-.188E-5,0
SENTINEL-3B,2018-039A,2026-06-19T18:49:42.233376,14.26735362,.00007281,98.6248,238.2796,93.3336,266.7928,0,U,43437,999,42449,.46883003E-4,.7E-6,0
FENGYUN 2H,2018-050A,2026-06-19T22:05:49.700832,1.00269309,.00019125,3.0393,79.0438,137.5585,102.3762,0,U,43491,999,2946,0,-.136E-5,0
METOP-C,2018-087A,2026-06-19T22:53:39.542496,14.21512774,.00018635,98.6643,230.5070,125.8190,234.3161,0,U,43689,999,39522,.5198627E-4,.7E-6,0
GEO-KOMPSAT-2A,2018-100A,2026-06-19T20:19:50.164032,1.00272846,.00021694,0.0474,152.7967,293.2967,255.1909,0,U,43823,999,2765,0,-.349E-5,0
METEOR-M2 2,2019-038A,2026-06-19T21:56:11.829984,14.24365749,.00019667,98.9148,158.2398,44.1587,315.9748,0,U,44387,999,36168,-.95588592E-4,-.267E-5,0
ARKTIKA-M 1,2021-016A,2026-06-17T11:46:36.471360,2.00622504,.72885287,63.2922,57.5948,269.9420,14.6012,0,U,47719,999,3879,0,-.21E-5,0
FENGYUN 3E,2021-062A,2026-06-19T22:47:51.995904,14.19902876,.00028628,98.7492,174.3273,81.7572,278.3929,0,U,49008,999,25697,-.1825907E-3,-.432E-5,0
GOES 18,2022-021A,2026-06-19T19:04:00.687360,1.00271801,.0000394,0.0365,172.6511,326.3071,278.0456,0,U,51850,999,661,0,.91E-6,0
NOAA 21 (JPSS-2),2022-150A,2026-06-19T22:10:40.359936,14.19565932,.00018153,98.7059,109.6674,148.0983,212.0304,0,U,54234,999,18693,.47620118E-4,.57E-6,0
METEOSAT-12 (MTG-I1),2022-170C,2026-06-19T18:49:38.807616,1.00273379,.00032937,0.7417,23.4562,70.9029,95.6585,0,U,54743,999,1300,0,-.14E-6,0
TIANMU-1 03,2023-039A,2026-06-19T23:02:53.189376,15.47352540,.00041125,97.5241,345.0376,92.2022,267.9699,0,U,55973,999,18126,.26977492E-3,.137E-3,0
TIANMU-1 04,2023-039B,2026-06-19T22:46:11.440992,15.47951653,.00047771,97.5175,344.1797,88.4111,271.7686,0,U,55974,999,18127,.26638305E-3,.13813E-3,0
TIANMU-1 05,2023-039C,2026-06-19T22:35:22.645248,15.47277408,.00040566,97.5222,344.6317,108.7637,251.4053,0,U,55975,999,18124,.2544297E-3,.12881E-3,0
TIANMU-1 06,2023-039D,2026-06-19T22:51:18.174816,15.47855407,.00043469,97.5228,345.2819,103.5177,256.6557,0,U,55976,999,18127,.26879566E-3,.13892E-3,0
FENGYUN 3G,2023-055A,2026-06-19T22:30:54.499392,15.52736029,.00070417,49.9935,331.8454,307.9231,52.1099,0,U,56232,999,18043,.33543302E-3,.20746E-3,0
METEOR-M2 3,2023-091A,2026-06-19T23:30:05.090976,14.24047012,.00045043,98.6081,225.9005,148.3465,211.7985,0,U,57166,999,15491,.11728673E-4,-.16E-6,0
TIANMU-1 07,2023-101A,2026-06-19T23:28:32.333664,15.29834385,.00042034,97.2587,221.5826,115.8634,244.3041,0,U,57399,999,16207,.17498354E-3,.4982E-4,0
TIANMU-1 08,2023-101B,2026-06-19T22:40:29.530272,15.29838791,.00056597,97.2576,221.3202,108.4038,251.7819,0,U,57400,999,16206,.18038617E-3,.514E-4,0
TIANMU-1 09,2023-101C,2026-06-19T22:16:31.700352,15.29870496,.0004704,97.2534,220.7183,120.6932,239.4773,0,U,57401,999,16206,.18212404E-3,.5195E-4,0
TIANMU-1 10,2023-101D,2026-06-19T23:04:11.678592,15.29842471,.00063052,97.2614,221.8039,119.0030,241.1844,0,U,57402,999,16206,.18473366E-3,.5267E-4,0
FENGYUN 3F,2023-111A,2026-06-19T22:24:36.875232,14.19939544,.00015862,98.6835,240.8913,91.4047,268.7311,0,U,57490,999,14925,.3940693E-4,.4E-6,0
ARKTIKA-M 2,2023-198A,2026-06-17T18:13:15.259296,2.00612717,.69023443,63.2243,154.2920,267.4286,18.7609,0,U,58584,999,1833,0,.145E-5,0
TIANMU-1 11,2023-205A,2026-06-20T00:03:22.263264,15.27019718,.00086198,97.3445,192.5151,7.5887,352.5481,0,U,58645,999,13795,.17407331E-3,.4546E-4,0
TIANMU-1 12,2023-205B,2026-06-19T21:46:25.603392,15.26984287,.00064048,97.3435,192.1767,353.7014,6.4143,0,U,58646,999,13792,.1752976E-3,.4572E-4,0
TIANMU-1 13,2023-205C,2026-06-19T22:33:08.630208,15.26837718,.00055886,97.3462,192.4816,330.3950,29.6972,0,U,58647,999,13792,.18117057E-3,.4706E-4,0
TIANMU-1 14,2023-205D,2026-06-19T23:46:05.735424,15.26882864,.00065482,97.3397,191.7110,334.3998,25.6916,0,U,58648,999,13793,.17864665E-3,.4646E-4,0
TIANMU-1 19,2023-208A,2026-06-19T21:36:27.228096,15.31607818,.00036548,97.4508,287.2139,315.6080,44.4868,0,U,58660,999,13774,.21847495E-3,.659E-4,0
