FENGYUN 3D              
1 43010U 17072A   26170.89587578 -.00000051  00000+0 -22976-5 0  9996
2 43010  99.0132 145.3674 0002477  59.0038 301.1381 14.19739831445375
NOAA 20 (JPSS-1)        
1 43013U 17073A   26170.89127545  .00000037  00000+0  38386-4 0  9997
2 43013  98.7770 110.3299 0000367 115.6288 244.4926 14.19512178444858
GOES 17                 
1 43226U 18022A   26170.87527517 -.00000188  00000+0  00000+0 0  9994
2 43226   0.9450  85.6629 0000556  26.8399  21.1589  1.00269498 30453
SENTINEL-3B             
1 43437U 18039A   26170.78451659  .00000070  00000+0  46883-4 0  9992
2 43437  98.6248 238.2796 0000728  93.3336 266.7928 14.26735362424493
FENGYUN 2H              
1 43491U 18050A   26170.92071413 -.00000136  00000+0  00000+0 0  9997
2 43491   3.0393  79.0438 0001912 137.5585 102.3762  1.00269309 29461
METOP-C                 
1 43689U 18087A   26170.95392989  .00000070  00000+0  51986-4 0  9993
2 43689  98.6643 230.5070 0001863 125.8190 234.3161 14.21512774395224
GEO-KOMPSAT-2A          
1 43823U 18100A   26170.84710838 -.00000349  00000+0  00000+0 0  9990
2 43823   0.0474 152.7967 0002169 293.2967 255.1909  1.00272846 27651
METEOR-M2 2             
1 44387U 19038A   26170.91402581 -.00000267  00000+0 -95589-4 0  9999
2 44387  98.9148 158.2398 0001966  44.1587 315.9748 14.24365749361680
ARKTIKA-M 1             
1 47719U 21016A   26168.49069990 -.00000210  00000+0  00000+0 0  9999
2 47719  63.2922  57.5948 7288528 269.9420  14.6012  2.00622504 38796
FENGYUN 3E              
1 49008U 21062A   26170.94990736 -.00000432  00000+0 -18259-3 0  9993
2 49008  98.7492 174.3273 0002862  81.7572 278.3929 14.19902876256973
GOES 18                 
1 51850U 22021A   26170.79445240  .00000091  00000+0  00000+0 0  9995
2 51850   0.0365 172.6511 0000394 326.3071 278.0456  1.00271801  6611
NOAA 21 (JPSS-2)        
1 54234U 22150A   26170.92407824  .00000057  00000+0  47620-4 0  9994
2 54234  98.7059 109.6674 0001815 148.0983 212.0304 14.19565932186933
METEOSAT-12 (MTG-I1)    
1 54743U 22170C   26170.78447694 -.00000014  00000+0  00000+0 0  9994
2 54743   0.7417  23.4562 0003293  70.9029  95.6585  1.00273379 13004
TIANMU-1 03             
1 55973U 23039A   26170.96033784  .00013700  00000+0  26977-3 0  9996
2 55973  97.5241 345.0376 0004112  92.2022 267.9699 15.47352540181264
TIANMU-1 04             
1 55974U 23039B   26170.94874353  .00013813  00000+0  26638-3 0  9999
2 55974  97.5175 344.1797 0004777  88.4111 271.7686 15.47951653181271
TIANMU-1 05             
1 55975U 23039C   26170.94123432  .00012881  00000+0  25443-3 0  9992
2 55975  97.5222 344.6317 0004056 108.7637 251.4053 15.47277408181246
TIANMU-1 06             
1 55976U 23039D   26170.95229369  .00013892  00000+0  26880-3 0  9999
2 55976  97.5228 345.2819 0004346 103.5177 256.6557 15.47855407181271
FENGYUN 3G              
1 56232U 23055A   26170.93813078  .00020746  00000+0  33543-3 0  9997
2 56232  49.9935 331.8454 0007041 307.9231  52.1099 15.52736029180436
METEOR-M2 3             
1 57166U 23091A   26170.97922559 -.00000016  00000+0  11729-4 0  9995
2 57166  98.6081 225.9005 0004504 148.3465 211.7985 14.24047012154914
TIANMU-1 07             
1 57399U 23101A   26170.97815201  .00004982  00000+0  17498-3 0  9993
2 57399  97.2587 221.5826 0004203 115.8634 244.3041 15.29834385162078
TIANMU-1 08             
1 57400U 23101B   26170.94478623  .00005140  00000+0  18039-3 0  9995
2 57400  97.2576 221.3202 0005659 108.4038 251.7819 15.29838791162066
TIANMU-1 09             
1 57401U 23101C   26170.92814468  .00005195  00000+0  18212-3 0  9998
2 57401  97.2534 220.7183 0004704 120.6932 239.4773 15.29870496162061
TIANMU-1 10             
1 57402U 23101D   26170.96124628  .00005267  00000+0  18473-3 0  9994
2 57402  97.2614 221.8039 0006305 119.0030 241.1844 15.29842471162064
FENGYUN 3F              
1 57490U 23111A   26170.93376013  .00000040  00000+0  39407-4 0  9991
2 57490  98.6835 240.8913 0001586  91.4047 268.7311 14.19939544149256
ARKTIKA-M 2             
1 58584U 23198A   26168.75920439  .00000145  00000+0  00000+0 0  9993
2 58584  63.2243 154.2920 6902344 267.4286  18.7609  2.00612717 18330
TIANMU-1 11             
1 58645U 23205A   26171.00234101  .00004546  00000+0  17407-3 0  9998
2 58645  97.3445 192.5151 0008619   7.5887 352.5481 15.27019718137959
TIANMU-1 12             
1 58646U 23205B   26170.90724078  .00004572  00000+0  17530-3 0  9990
2 58646  97.3435 192.1767 0006404 353.7014   6.4143 15.26984287137924
TIANMU-1 13             
1 58647U 23205C   26170.93968322  .00004706  00000+0  18117-3 0  9997
2 58647  97.3462 192.4816 0005588 330.3950  29.6972 15.26837718137928
TIANMU-1 14             
1 58648U 23205D   26170.99034416  .00004646  00000+0  17865-3 0  9994
2 58648  97.3397 191.7110 0006548 334.3998  25.6916 15.26882864137935
TIANMU-1 19             
1 58660U 23208A   26170.90031514  .00006590  00000+0  21847-3 0  9993
2 58660  97.4508 287.2139 0003654 315.6080  44.4868 15.31607818137749
